{
"type": "FeatureCollection",
"name": "ukraine-outline",
"crs": { "type": "name", "properties": { "name": "urn:ogc:def:crs:OGC:1.3:CRS84" } },
"features": [
{ "type": "Feature", "properties": { "pop_est": 44033874, "continent": "Europe", "name": "Ukraine", "iso_a3": "UKR", "gdp_md_est": 352600.0 }, "geometry": { "type": "Polygon", "coordinates": [ [ [ 31.785992447555252, 52.101677569939703 ], [ 32.159440000000131, 52.061250000000143 ], [ 32.412058139787689, 52.288694973349777 ], [ 32.715760532367085, 52.238465481162109 ], [ 33.752699822735792, 52.335074571331802 ], [ 34.391730584457093, 51.768881740925906 ], [ 34.141978387190534, 51.566413479206346 ], [ 34.224815708154267, 51.255993150428878 ], [ 35.022183058417909, 51.207572333371502 ], [ 35.37791, 50.77394 ], [ 35.356116163887975, 50.57719737405904 ], [ 36.626167840325422, 50.225590928745135 ], [ 37.393459506995157, 50.38395335550365 ], [ 38.010631137856933, 49.9156615260747 ], [ 38.594988234213417, 49.926461900423703 ], [ 40.069040000000143, 49.60105 ], [ 40.080789015469406, 49.307429917999343 ], [ 39.67465, 48.783820000000162 ], [ 39.895620000000179, 48.23241 ], [ 39.738277622238854, 47.898937079451969 ], [ 38.77057, 47.825620000000185 ], [ 38.255112339029779, 47.546400458356914 ], [ 38.223538038899335, 47.10218984637595 ], [ 37.425137159989902, 47.02222056740419 ], [ 36.759854770664447, 46.698700263041019 ], [ 35.823684523264888, 46.64596446388714 ], [ 34.96234174982385, 46.273196519549742 ], [ 35.012658970047369, 45.737725199825491 ], [ 34.861792128174045, 45.76818243191957 ], [ 34.73201738827845, 45.965665731760623 ], [ 34.410401728537181, 46.005162391728845 ], [ 33.69946184910907, 46.219572831556434 ], [ 33.435988094713366, 45.971917370797485 ], [ 33.29856733575474, 46.080598456397809 ], [ 31.744140252415207, 46.333347886737329 ], [ 31.67530724460255, 46.706245022155542 ], [ 30.748748813609211, 46.583100084004116 ], [ 30.377608676888883, 46.03241018328572 ], [ 29.603289015427436, 45.293308010431126 ], [ 29.149724969201653, 45.464925442072456 ], [ 28.679779493939382, 45.304030870131704 ], [ 28.233553501099038, 45.488283189468291 ], [ 28.485269402792767, 45.596907050145902 ], [ 28.659987420371579, 45.939986884131642 ], [ 28.933717482221596, 46.258830471372562 ], [ 28.862972446414062, 46.437889309263831 ], [ 29.072106967899291, 46.517677720722496 ], [ 29.170653924279804, 46.379262396828722 ], [ 29.759971958136394, 46.349987697935362 ], [ 30.024658644335375, 46.42393667254504 ], [ 29.838210076626297, 46.525325832701689 ], [ 29.908851759569302, 46.674360663431457 ], [ 29.559674106573112, 46.928582872091326 ], [ 29.415135125452736, 47.346645209332578 ], [ 29.050867954227272, 47.510226955752501 ], [ 29.122698195113031, 47.849095160506465 ], [ 28.670891147585166, 48.118148505234103 ], [ 28.259546746541844, 48.155562242213421 ], [ 27.522537469195157, 48.467119452501116 ], [ 26.857823520624805, 48.368210761094495 ], [ 26.619336785597795, 48.220726223333472 ], [ 26.197450392366932, 48.220881252630349 ], [ 25.945941196402401, 47.987148749374214 ], [ 25.207743361112989, 47.891056423527473 ], [ 24.866317172960578, 47.737525743188314 ], [ 24.402056105250381, 47.981877753280429 ], [ 23.760958286237411, 47.985598456405455 ], [ 23.142236362406805, 48.096341050806949 ], [ 22.710531447040495, 47.882193915389408 ], [ 22.640819939878725, 48.150239569687415 ], [ 22.085608351334855, 48.422264309271789 ], [ 22.28084191253356, 48.825392157580673 ], [ 22.558137648211755, 49.085738023467144 ], [ 22.776418898212626, 49.027395331409622 ], [ 22.518450148211603, 49.476773586619743 ], [ 23.426508416444392, 50.308505764357449 ], [ 23.922757195743259, 50.424881089878738 ], [ 24.029985792748903, 50.705406602575181 ], [ 23.52707075368437, 51.578454087930311 ], [ 24.005077752384182, 51.617443956094405 ], [ 24.553106316839518, 51.888461005249184 ], [ 25.327787713327009, 51.910656032918553 ], [ 26.337958611768556, 51.832288723347972 ], [ 27.454066196408405, 51.592303371784396 ], [ 28.241615024536571, 51.572227077839067 ], [ 28.617612745892249, 51.427713934934843 ], [ 28.992835320763533, 51.602044379271476 ], [ 29.254938185347839, 51.368234361366888 ], [ 30.157363722460897, 51.416138414101468 ], [ 30.555117221811457, 51.319503485715657 ], [ 30.619454380014815, 51.822806098022454 ], [ 30.927549269338982, 52.04235342061439 ], [ 31.785992447555252, 52.101677569939703 ] ] ] } }
]
}
